INTELSAT 9 (IS-9)       
1 26451U 00043A   25079.48267168 -.00000005  00000+0  00000+0 0  9994
2 26451   9.3888  53.2780 0003370 325.4603  39.5257  1.00271935 90308
INTELSAT 10 (IS-10)     
1 26766U 01019A   25079.55400041  .00000000  00000+0  00000+0 0  9998
2 26766   7.9866  63.8701 0003920 300.3324  79.6608  1.00271815 41072
INTELSAT 901 (IS-901)   
1 26824U 01024A   25079.46407929 -.00000195  00000+0  00000+0 0  9997
2 26824   0.0677 105.3219 0002475 275.3156 297.1616  1.00272421 87031
INTELSAT 902 (IS-902)   
1 26900U 01039A   25079.52475101 -.00000275  00000+0  00000+0 0  9991
2 26900   4.9674  77.3071 0004579 281.0935 318.7078  1.00271449 86227
INTELSAT 904 (IS-904)   
1 27380U 02007A   25079.39222916 -.00000206  00000+0  00000+0 0  9993
2 27380   5.7790  74.5972 0003316 293.3127 281.9631  1.00272660 47212
DIRECTV 5 (TEMPO 1)     
1 27426U 02023A   25079.50461422 -.00000049  00000+0  00000+0 0  9997
2 27426   3.7129  80.9844 0003593 289.5452 239.2899  1.00271642 83571
INTELSAT 905 (IS-905)   
1 27438U 02027A   25079.57822763 -.00000211  00000+0  00000+0 0  9991
2 27438   5.6069  75.2305 0006021 282.6517 320.0121  0.99741781 46818
GALAXY 3C (G-3C)        
1 27445U 02030A   25079.45070632 -.00000145  00000+0  00000+0 0  9996
2 27445   2.5588  83.8315 0002673  46.9021 114.8849  1.00271976 41946
INTELSAT 906 (IS-906)   
1 27513U 02041A   25079.20392119  .00000021  00000+0  00000+0 0  9996
2 27513   4.6456  78.5105 0002827 264.2985 332.7325  1.00273591 82470
GALAXY 23 (G-23)        
1 27854U 03034A   25079.51690251  .00000019  00000+0  00000+0 0  9996
2 27854   2.0226  85.3632 0002889 282.6522 235.4612  1.00271266 83998
GALAXY 13 (HORIZONS-1)  
1 27954U 03044A   25079.51116840  .00000140  00000+0  00000+0 0  9990
2 27954   0.2436  92.0348 0002333 266.0768 214.1705  1.00270398 42024
INTELSAT 10-02          
1 28358U 04022A   25079.38517086 -.00000004  00000+0  00000+0 0  9998
2 28358   0.0180 199.1077 0000905 175.4095 301.3241  1.00271124 76001
XM-3 (RHYTHM)           
1 28626U 05008A   25079.48100394 -.00000192  00000+0  00000+0 0  9990
2 28626   0.0545 255.3475 0002327 168.5703 201.1553  1.00273398 38073
DIRECTV 8               
1 28659U 05019A   25079.51725003  .00000008  00000+0  00000+0 0  9997
2 28659   0.0168 137.8689 0003043 229.8082 237.7713  1.00271529 72635
GALAXY 28 (G-28)        
1 28702U 05022A   25079.52324478 -.00000178  00000+0  00000+0 0  9991
2 28702   2.1273  84.5898 0004796 223.4848 329.5764  1.00270693 47437
GALAXY 16 (G-16)        
1 29236U 06023A   25079.23239303 -.00000119  00000+0  00000+0 0  9991
2 29236   0.0265 221.8742 0002847 154.6231 146.1578  1.00272228 68422
DIRECTV 9S              
1 29494U 06043A   25079.48655903 -.00000106  00000+0  00000+0 0  9990
2 29494   1.2453  86.4510 0003087 275.9355 249.8227  1.00272420 46836
GALAXY 17 (G-17)        
1 31307U 07016B   25079.54142155 -.00000198  00000+0  00000+0 0  9995
2 31307   1.8191  85.7166 0003805 215.5542 346.9465  1.00270439 65250
DIRECTV 10              
1 31862U 07032A   25079.39697384 -.00000096  00000+0  00000+0 0  9998
2 31862   0.0261 355.8798 0000499  19.2834 203.1189  1.00271966 41040
INTELSAT 11 (IS-11)     
1 32253U 07044B   25077.38980492 -.00000266  00000+0  00000+0 0  9997
2 32253   2.3743  84.3185 0004940 358.1056 190.9695  1.00194353 63925
HORIZONS-2              
1 32388U 07063B   25079.53586385 -.00000246  00000+0  00000+0 0  9997
2 32388   1.4270  86.2862 0002400 296.6724 274.4482  1.00270382 63265
DIRECTV 11              
1 32729U 08013A   25079.44983752 -.00000119  00000+0  00000+0 0  9990
2 32729   0.0338   0.6799 0000309 140.9450  99.3296  1.00272129 41046
GALAXY 18 (G-18)        
1 32951U 08024A   25079.38030880  .00000032  00000+0  00000+0 0  9990
2 32951   0.0168 209.3624 0002937 162.7330 179.9508  1.00273069 41301
INTELSAT 25 (IS-25)     
1 33153U 08034A   25079.51364093 -.00000217  00000+0  00000+0 0  9993
2 33153   1.5337  85.9491 0003166 283.9347 321.8037  1.00271018 61140
GALAXY 19 (G-19)        
1 33376U 08045A   25079.48655903 -.00000132  00000+0  00000+0 0  9997
2 33376   0.0383 263.3502 0002852 105.6040 247.4587  1.00272238 60358
FM-5                    
1 35493U 09034A   25079.16294609 -.00000193  00000+0  00000+0 0  9992
2 35493   0.0280 263.1238 0002729 281.2019 326.1101  1.00270680 42097
INTELSAT 14 (IS-14)     
1 36097U 09064A   25079.34905697 -.00000266  00000+0  00000+0 0  9993
2 36097   0.0152 111.9229 0002722 267.8110 239.0502  1.00271736 56052
INTELSAT 15 (IS-15)     
1 36106U 09067A   25079.55782314 -.00000179  00000+0  00000+0 0  9992
2 36106   0.0150 222.8307 0002339 143.2767  98.1753  1.00272299 36683
DIRECTV 12              
1 36131U 09075A   25079.39697384 -.00000096  00000+0  00000+0 0  9991
2 36131   0.0283   2.8984 0000798  40.4626 175.0041  1.00271710 42009
INTELSAT 16 (IS-16)     
1 36397U 10006A   25079.52576431 -.00000237  00000+0  00000+0 0  9992
2 36397   0.0149 159.4913 0001991 214.4334 277.4503  1.00270188 55103
XM-5                    
1 37185U 10053A   25079.50461422 -.00000016  00000+0  00000+0 0  9996
2 37185   0.0276 266.0590 0001493 271.5366  67.1367  1.00273911 52939
INTELSAT 17 (IS-17)     
1 37238U 10065B   25079.59957093  .00000005  00000+0  00000+0 0  9998
2 37238   0.0106 192.2808 0002566 176.0288  91.8877  1.00271689 48694
INTELSAT 28 (IS-28)     
1 37392U 11016A   25079.29168534 -.00000153  00000+0  00000+0 0  9992
2 37392   0.6288  88.6624 0004068 273.0195 263.4090  1.00146700 48734
INTELSAT 18 (IS-18)     
1 37834U 11056A   25079.57658928  .00000060  00000+0  00000+0 0  9995
2 37834   0.0196 152.2785 0002026 227.1347 186.4991  1.00272468 49268
INTELSAT 22 (IS-22)     
1 38098U 12011A   25079.55521674 -.00000052  00000+0  00000+0 0  9997
2 38098   0.0204 223.2340 0001675 135.6959  91.3729  1.00270713  2632
INTELSAT 19 (IS-19)     
1 38356U 12030A   25079.57380911 -.00000050  00000+0  00000+0 0  9992
2 38356   0.0187 159.4240 0002984 209.2558 182.2338  1.00270854 45892
INTELSAT 20 (IS-20)     
1 38740U 12043A   25079.40044888 -.00000018  00000+0  00000+0 0  9999
2 38740   0.0135 161.7400 0002686  23.5311 205.5458  1.00272297 46198
INTELSAT 21 (IS-21)     
1 38749U 12045A   25079.52941329 -.00000278  00000+0  00000+0 0  9997
2 38749   0.0163 213.9513 0001792 164.4962 292.4300  1.00270494 45970
INTELSAT 23 (IS-23)     
1 38867U 12057A   25079.35461465 -.00000277  00000+0  00000+0 0  9999
2 38867   0.0250 214.4309 0000505  75.7000 322.6912  1.00276915 45402
FM-6                    
1 39360U 13058A   25079.50461422 -.00000010  00000+0  00000+0 0  9995
2 39360   0.0221 236.4950 0000294 268.1923  99.0663  1.00271183 41510
INTELSAT 30 (IS-30)     
1 40271U 14062A   25079.38586374 -.00000143  00000+0  00000+0 0  9991
2 40271   0.0153  89.3575 0001502 343.1289 149.5208  1.00271188  2234
DIRECTV 14              
1 40333U 14078B   25079.52124653 -.00000119  00000+0  00000+0 0  9994
2 40333   0.0348 306.6836 0000403 206.1082 113.9156  1.00271274 37693
DIRECTV 15              
1 40663U 15026A   25079.48655903 -.00000095  00000+0  00000+0 0  9999
2 40663   0.0299  99.8294 0000146  62.6190  88.0859  1.00268700 35917
SKY MEXICO-1            
1 40664U 15026B   25079.52532991 -.00000228  00000+0  00000+0 0  9994
2 40664   0.0433 351.9139 0002481  32.3548 264.3921  1.00272192 35901
INTELSAT 34 (IS-34)     
1 40874U 15039A   25079.52993456 -.00000278  00000+0  00000+0 0  9993
2 40874   0.0173 209.8303 0000393 354.4633 109.2850  1.00270710 35072
INTELSAT 31 (IS-31)     
1 41581U 16035A   25079.16294609 -.00000144  00000+0  00000+0 0  9992
2 41581   0.0095 185.0691 0002437 338.0303 338.4217  1.00276848 32134
INTELSAT 36 (IS-36)     
1 41747U 16053A   25079.40044888 -.00000018  00000+0  00000+0 0  9995
2 41747   0.0140 130.9105 0000854 201.9204  57.9907  1.00271800 31396
INTELSAT 32E (IS-32E)   
1 41945U 17007B   25079.34905697 -.00000262  00000+0  00000+0 0  9993
2 41945   0.0187 113.2313 0000721 284.8408 222.5153  1.00269125 29679
INTELSAT 35E (IS-35E)   
1 42818U 17041A   25079.51364093 -.00000231  00000+0  00000+0 0  9995
2 42818   0.0166 233.9047 0002196 121.9019 332.8870  1.00271861 28262
INTELSAT 37E (IS-37E)   
1 42950U 17059A   25079.50808600 -.00000134  00000+0  00000+0 0  9999
2 42950   0.0175 163.0738 0002169 211.8538 328.2517  1.00272027 27513
AZERSPACE 2 (IS-38)     
1 43632U 18074A   25079.41711453  .00000143  00000+0  00000+0 0  9993
2 43632   0.0193 164.0455 0001591 212.9666 356.4338  1.00271553 23894
HORIZONS-3E             
1 43633U 18074B   25079.35092505 -.00000024  00000+0  00000+0 0  9996
2 43633   0.0363 328.7794 0000728 350.0945 154.5644  1.00273115 23796
AT&T T-16               
1 44333U 19034A   25079.50461422 -.00000108  00000+0  00000+0 0  9999
2 44333   0.0242 103.9547 0001555  51.4368 103.6689  1.00270208 21083
INTELSAT 39 (IS-39)     
1 44476U 19049B   25078.97999220  .00000041  00000+0  00000+0 0  9990
2 44476   0.0197 166.5783 0001163 315.3008 110.6113  1.00270363 20570
GALAXY 30 (G-30)        
1 46114U 20056C   25079.50392030  .00000044  00000+0  00000+0 0  9990
2 46114   0.0177 204.7176 0001951 182.7553 207.2051  1.00272617 16748
GALAXY 33 (G-33)        
1 54026U 22128A   25079.02266956  .00000086  00000+0  00000+0 0  9993
2 54026   0.0172 214.7382 0001897 154.1080  44.1184  1.00273569  9183
GALAXY 34 (G-34)        
1 54027U 22128B   25077.93738646  .00000069  00000+0  00000+0 0  9993
2 54027   0.0217 190.7731 0003986 199.8901 354.5262  1.00243746  9341
GALAXY 31 (G-31)        
1 54243U 22153A   25079.01711441  .00000020  00000+0  00000+0 0  9993
2 54243   0.0121 210.9429 0001433 158.2308  53.7851  1.00273196  2571
GALAXY 32 (G-32)        
1 54244U 22153B   25073.38084876 -.00000185  00000+0  00000+0 0  9996
2 54244   0.0109 154.4219 0003608 190.3176 233.6066  1.00307206  8532
GALAXY 35 (G-35)        
1 54741U 22170A   25079.48655903 -.00000155  00000+0  00000+0 0  9996
2 54741   0.0096 210.1035 0001979 154.1096 256.0965  1.00271687  8342
GALAXY 36 (G-36)        
1 54742U 22170B   25078.39979889 -.00000179  00000+0  00000+0 0  9994
2 54742   0.0097 150.5594 0002552 263.3962 178.1607  1.00277851  8216
GALAXY 37 (G-37)        
1 57493U 23112A   25079.50392030  .00000055  00000+0  00000+0 0  9990
2 57493   0.0153 123.8088 0001996 244.0459 224.8319  1.00270338  5998
